{
    "links": {
        "self": "http://www.neowsapp.com/rest/v1/neo/3397957?api_key=iIulBulltgU6a56xZRHN4H3l9WmuAYTsLGpBGhQ2"
    },
    "id": "3397957",
    "neo_reference_id": "3397957",
    "name": "(2007 XN16)",
    "designation": "2007 XN16",
    "nasa_jpl_url": "http://ssd.jpl.nasa.gov/sbdb.cgi?sstr=3397957",
    "absolute_magnitude_h": 25.5,
    "estimated_diameter": {
        "kilometers": {
            "estimated_diameter_min": 0.0211132445,
            "estimated_diameter_max": 0.0472106499
        },
        "meters": {
            "estimated_diameter_min": 21.113244479,
            "estimated_diameter_max": 47.2106498806
        },
        "miles": {
            "estimated_diameter_min": 0.0131191578,
            "estimated_diameter_max": 0.0293353287
        },
        "feet": {
            "estimated_diameter_min": 69.2691770164,
            "estimated_diameter_max": 154.8905885541
        }
    },
    "is_potentially_hazardous_asteroid": false,
    "close_approach_data": [
        {
            "close_approach_date": "2007-12-09",
            "close_approach_date_full": "2007-Dec-09 17:37",
            "epoch_date_close_approach": 1197221820000,
            "relative_velocity": {
                "kilometers_per_second": "8.8933430103",
                "kilometers_per_hour": "32016.0348369419",
                "miles_per_hour": "19893.5189796543"
            },
            "miss_distance": {
                "astronomical": "0.0125392796",
                "lunar": "4.8777797644",
                "kilometers": "1875849.519494452",
                "miles": "1165598.8418773576"
            },
            "orbiting_body": "Earth"
        }
    ],
    "orbital_data": {
        "orbit_id": "9",
        "orbit_determination_date": "2017-04-06 09:04:56",
        "first_observation_date": "2007-12-10",
        "last_observation_date": "2007-12-29",
        "data_arc_in_days": 19,
        "observations_used": 16,
        "orbit_uncertainty": "8",
        "minimum_orbit_intersection": ".00748302",
        "jupiter_tisserand_invariant": "3.203",
        "epoch_osculation": "2454452.5",
        "eccentricity": ".6031534512692649",
        "semi_major_axis": "2.4698837542378",
        "inclination": "4.18914832964445",
        "ascending_node_longitude": "258.1280793099728",
        "orbital_period": "1417.794205925241",
        "perihelion_distance": ".9801648436353819",
        "perihelion_argument": "162.0979522713748",
        "aphelion_distance": "3.959602664840217",
        "perihelion_time": "2454431.216898861053",
        "mean_anomaly": "5.404110397686959",
        "mean_motion": ".2539155531144712",
        "equinox": "J2000",
        "orbit_class": {
            "orbit_class_type": "APO",
            "orbit_class_description": "Near-Earth asteroid orbits which cross the Earth’s orbit similar to that of 1862 Apollo",
            "orbit_class_range": "a (semi-major axis) > 1.0 AU; q (perihelion) < 1.017 AU"
        }
    },
    "is_sentry_object": false
}